start=new Date('2021-11-01T00:00:00.000Z').valueOf();
sats=[{"RA_OF_ASC_NODE":"138.7574","ECCENTRICITY":"0.00018990","TLE_LINE2":"2 47728  53.0558 138.7574 0001899  82.0265 278.0939 15.06400852 37617","ARG_OF_PERICENTER":"82.0265","NORAD_CAT_ID":"47728","EPOCH":"2021-10-31T20:01:38.117280","MEAN_MOTION_DDOT":"0.0000000000000","GP_ID":"188579047","MEAN_MOTION_DOT":"0.00000692","MEAN_ANOMALY":"278.0939","OBJECT_TYPE":"PAYLOAD","SITE":"AFETR","MEAN_ELEMENT_THEORY":"SGP4","REV_AT_EPOCH":"3761","APOAPSIS":"548.526","COUNTRY_CODE":"US","EPHEMERIS_TYPE":"0","CLASSIFICATION_TYPE":"U","DECAY_DATE":null,"PERIAPSIS":"545.896","BSTAR":"0.00006533800000","SEMIMAJOR_AXIS":"6925.346","INCLINATION":"53.0558","RCS_SIZE":"LARGE","OBJECT_ID":"2021-017G","PERIOD":"95.592","OBJECT_NAME":"STARLINK-2131","TIME_SYSTEM":"UTC","ELEMENT_SET_NO":"999","CENTER_NAME":"EARTH","FILE":"3194659","MEAN_MOTION":"15.06400852","REF_FRAME":"TEME","TLE_LINE1":"1 47728U 21017G   21304.83446895  .00000692  00000-0  65338-4 0  9992","LAUNCH_DATE":"2021-03-04"},{"FILE":"3194659","MEAN_MOTION":"15.06509329","TIME_SYSTEM":"UTC","OBJECT_NAME":"STARLINK-2132","CENTER_NAME":"EARTH","ELEMENT_SET_NO":"999","LAUNCH_DATE":"2021-03-04","REF_FRAME":"TEME","TLE_LINE1":"1 47729U 21017H   21304.51226715  .00014431  00000-0  98285-3 0  9997","BSTAR":"0.00098285000000","PERIAPSIS":"546.372","DECAY_DATE":null,"PERIOD":"95.585","OBJECT_ID":"2021-017H","SEMIMAJOR_AXIS":"6925.014","RCS_SIZE":"LARGE","INCLINATION":"53.0556","REV_AT_EPOCH":"3834","OBJECT_TYPE":"PAYLOAD","SITE":"AFETR","MEAN_ELEMENT_THEORY":"SGP4","CLASSIFICATION_TYPE":"U","APOAPSIS":"547.385","EPHEMERIS_TYPE":"0","COUNTRY_CODE":"US","ARG_OF_PERICENTER":"33.2417","TLE_LINE2":"2 47729  53.0556  85.1856 0000731  33.2417 326.8618 15.06509329 38341","RA_OF_ASC_NODE":"85.1856","ECCENTRICITY":"0.00007310","MEAN_ANOMALY":"326.8618","MEAN_MOTION_DOT":"0.00014431","NORAD_CAT_ID":"47729","GP_ID":"188579041","MEAN_MOTION_DDOT":"0.0000000000000","EPOCH":"2021-10-31T12:17:39.881760"},{"COUNTRY_CODE":"US","EPHEMERIS_TYPE":"0","APOAPSIS":"548.368","CLASSIFICATION_TYPE":"U","SITE":"AFETR","MEAN_ELEMENT_THEORY":"SGP4","OBJECT_TYPE":"PAYLOAD","REV_AT_EPOCH":"3803","EPOCH":"2021-10-31T20:32:46.930272","MEAN_MOTION_DDOT":"0.0000000000000","GP_ID":"188607256","NORAD_CAT_ID":"47730","MEAN_MOTION_DOT":"0.00002167","MEAN_ANOMALY":"283.5700","ECCENTRICITY":"0.00016800","RA_OF_ASC_NODE":"153.6619","TLE_LINE2":"2 47730  53.0560 153.6619 0001680  76.5476 283.5700 15.06403059 38035","ARG_OF_PERICENTER":"76.5476","TLE_LINE1":"1 47730U 21017J   21304.85609873  .00002167  00000-0  16431-3 0  9992","REF_FRAME":"TEME","LAUNCH_DATE":"2021-03-04","CENTER_NAME":"EARTH","ELEMENT_SET_NO":"999","OBJECT_NAME":"STARLINK-2140","TIME_SYSTEM":"UTC","MEAN_MOTION":"15.06403059","FILE":"3194950","INCLINATION":"53.0560","RCS_SIZE":"LARGE","SEMIMAJOR_AXIS":"6925.339","OBJECT_ID":"2021-017J","PERIOD":"95.592","DECAY_DATE":null,"PERIAPSIS":"546.041","BSTAR":"0.00016431000000"},{"BSTAR":"0.00006434600000","PERIAPSIS":"546.078","DECAY_DATE":null,"PERIOD":"95.592","OBJECT_ID":"2021-017K","SEMIMAJOR_AXIS":"6925.324","RCS_SIZE":"LARGE","INCLINATION":"53.0546","FILE":"3194950","MEAN_MOTION":"15.06407978","TIME_SYSTEM":"UTC","OBJECT_NAME":"STARLINK-2141","CENTER_NAME":"EARTH","ELEMENT_SET_NO":"999","LAUNCH_DATE":"2021-03-04","REF_FRAME":"TEME","TLE_LINE1":"1 47731U 21017K   21304.86302105  .00000677  00000-0  64346-4 0  9995","ARG_OF_PERICENTER":"81.7373","TLE_LINE2":"2 47731  53.0546 148.6263 0001604  81.7373 278.3798 15.06407978 38111","RA_OF_ASC_NODE":"148.6263","ECCENTRICITY":"0.00016040","MEAN_ANOMALY":"278.3798","MEAN_MOTION_DOT":"0.00000677","NORAD_CAT_ID":"47731","GP_ID":"188606511","MEAN_MOTION_DDOT":"0.0000000000000","EPOCH":"2021-10-31T20:42:45.018720","REV_AT_EPOCH":"3811","OBJECT_TYPE":"PAYLOAD","MEAN_ELEMENT_THEORY":"SGP4","SITE":"AFETR","CLASSIFICATION_TYPE":"U","APOAPSIS":"548.300","EPHEMERIS_TYPE":"0","COUNTRY_CODE":"US"},{"PERIOD":"93.393","OBJECT_ID":"2021-017L","SEMIMAJOR_AXIS":"6818.711","RCS_SIZE":"LARGE","INCLINATION":"53.0410","BSTAR":"-0.01294200000000","PERIAPSIS":"439.851","DECAY_DATE":null,"LAUNCH_DATE":"2021-03-04","REF_FRAME":"TEME","TLE_LINE1":"1 47732U 21017L   21304.91933234 -.00521916  00000-0 -12942-1 0  9993","FILE":"3194950","MEAN_MOTION":"15.41875742","TIME_SYSTEM":"UTC","OBJECT_NAME":"STARLINK-2142","CENTER_NAME":"EARTH","ELEMENT_SET_NO":"999","MEAN_ANOMALY":"295.6568","MEAN_MOTION_DOT":"-0.00521916","NORAD_CAT_ID":"47732","GP_ID":"188606761","EPOCH":"2021-10-31T22:03:50.314176","MEAN_MOTION_DDOT":"0.0000000000000","ARG_OF_PERICENTER":"64.4546","TLE_LINE2":"2 47732  53.0410  65.1653 0001063  64.4546 295.6568 15.41875742 39280","RA_OF_ASC_NODE":"65.1653","ECCENTRICITY":"0.00010630","CLASSIFICATION_TYPE":"U","APOAPSIS":"441.300","COUNTRY_CODE":"US","EPHEMERIS_TYPE":"0","REV_AT_EPOCH":"3928","OBJECT_TYPE":"PAYLOAD","SITE":"AFETR","MEAN_ELEMENT_THEORY":"SGP4"},{"MEAN_MOTION_DOT":"-0.00015807","MEAN_ANOMALY":"352.4100","MEAN_MOTION_DDOT":"0.0000000000000","EPOCH":"2021-10-31T22:01:05.321280","GP_ID":"188607513","NORAD_CAT_ID":"47733","TLE_LINE2":"2 47733  53.0544 158.4793 0001686   7.6915 352.4100 15.06350936 38029","ARG_OF_PERICENTER":"7.6915","ECCENTRICITY":"0.00016860","RA_OF_ASC_NODE":"158.4793","CLASSIFICATION_TYPE":"U","COUNTRY_CODE":"US","EPHEMERIS_TYPE":"0","APOAPSIS":"548.532","REV_AT_EPOCH":"3802","MEAN_ELEMENT_THEORY":"SGP4","SITE":"AFETR","OBJECT_TYPE":"PAYLOAD","OBJECT_ID":"2021-017M","PERIOD":"95.595","INCLINATION":"53.0544","RCS_SIZE":"LARGE","SEMIMAJOR_AXIS":"6925.499","BSTAR":"-0.00104600000000","DECAY_DATE":null,"PERIAPSIS":"546.196","LAUNCH_DATE":"2021-03-04","TLE_LINE1":"1 47733U 21017M   21304.91742270 -.00015807  00000-0 -10460-2 0  9993","REF_FRAME":"TEME","MEAN_MOTION":"15.06350936","FILE":"3194950","CENTER_NAME":"EARTH","ELEMENT_SET_NO":"999","OBJECT_NAME":"STARLINK-2143","TIME_SYSTEM":"UTC"},{"FILE":"3194709","MEAN_MOTION":"15.06399079","TIME_SYSTEM":"UTC","OBJECT_NAME":"STARLINK-2144","ELEMENT_SET_NO":"999","CENTER_NAME":"EARTH","LAUNCH_DATE":"2021-03-04","REF_FRAME":"TEME","TLE_LINE1":"1 47734U 21017N   21304.87040086 -.00000344  00000-0 -41948-5 0  9993","BSTAR":"-0.00000419480000","PERIAPSIS":"545.790","DECAY_DATE":null,"PERIOD":"95.592","OBJECT_ID":"2021-017N","SEMIMAJOR_AXIS":"6925.351","RCS_SIZE":"LARGE","INCLINATION":"53.0547","REV_AT_EPOCH":"3747","OBJECT_TYPE":"PAYLOAD","SITE":"AFETR","MEAN_ELEMENT_THEORY":"SGP4","CLASSIFICATION_TYPE":"U","APOAPSIS":"548.643","EPHEMERIS_TYPE":"0","COUNTRY_CODE":"US","ARG_OF_PERICENTER":"76.9017","TLE_LINE2":"2 47734  53.0547 148.5917 0002060  76.9017 283.2202 15.06399079 37473","RA_OF_ASC_NODE":"148.5917","ECCENTRICITY":"0.00020600","MEAN_ANOMALY":"283.2202","MEAN_MOTION_DOT":"-0.00000344","NORAD_CAT_ID":"47734","GP_ID":"188579567","MEAN_MOTION_DDOT":"0.0000000000000","EPOCH":"2021-10-31T20:53:22.634304"},{"SITE":"AFETR","MEAN_ELEMENT_THEORY":"SGP4","OBJECT_TYPE":"PAYLOAD","REV_AT_EPOCH":"3915","COUNTRY_CODE":"US","EPHEMERIS_TYPE":"0","APOAPSIS":"548.120","CLASSIFICATION_TYPE":"U","ECCENTRICITY":"0.00013310","RA_OF_ASC_NODE":"73.5780","TLE_LINE2":"2 47735  53.0509  73.5780 0001331 121.2180 238.8940 15.06404889 39150","ARG_OF_PERICENTER":"121.2180","MEAN_MOTION_DDOT":"0.0000000000000","EPOCH":"2021-10-31T20:53:59.883072","GP_ID":"188606011","NORAD_CAT_ID":"47735","MEAN_MOTION_DOT":"-0.00000923","MEAN_ANOMALY":"238.8940","ELEMENT_SET_NO":"999","CENTER_NAME":"EARTH","OBJECT_NAME":"STARLINK-2146","TIME_SYSTEM":"UTC","MEAN_MOTION":"15.06404889","FILE":"3194950","TLE_LINE1":"1 47735U 21017P   21304.87083198 -.00000923  00000-0 -43072-4 0  9997","REF_FRAME":"TEME","LAUNCH_DATE":"2021-03-04","DECAY_DATE":null,"PERIAPSIS":"546.277","BSTAR":"-0.00004307200000","INCLINATION":"53.0509","RCS_SIZE":"LARGE","SEMIMAJOR_AXIS":"6925.334","OBJECT_ID":"2021-017P","PERIOD":"95.592"},{"BSTAR":"0.00000147750000","PERIAPSIS":"545.991","DECAY_DATE":null,"PERIOD":"95.592","OBJECT_ID":"2021-017Q","SEMIMAJOR_AXIS":"6925.353","RCS_SIZE":"LARGE","INCLINATION":"53.0563","FILE":"3194950","MEAN_MOTION":"15.06398389","TIME_SYSTEM":"UTC","OBJECT_NAME":"STARLINK-2147","ELEMENT_SET_NO":"999","CENTER_NAME":"EARTH","LAUNCH_DATE":"2021-03-04","REF_FRAME":"TEME","TLE_LINE1":"1 47736U 21017Q   21304.90450052 -.00000260  00000-0  14775-5 0  9991","ARG_OF_PERICENTER":"83.7763","TLE_LINE2":"2 47736  53.0563 138.4374 0001773  83.7763 276.3428 15.06398389 38301","RA_OF_ASC_NODE":"138.4374","ECCENTRICITY":"0.00017730","MEAN_ANOMALY":"276.3428","MEAN_MOTION_DOT":"-0.00000260","NORAD_CAT_ID":"47736","GP_ID":"188606261","MEAN_MOTION_DDOT":"0.0000000000000","EPOCH":"2021-10-31T21:42:28.844928","REV_AT_EPOCH":"3830","OBJECT_TYPE":"PAYLOAD","MEAN_ELEMENT_THEORY":"SGP4","SITE":"AFETR","CLASSIFICATION_TYPE":"U","APOAPSIS":"548.446","EPHEMERIS_TYPE":"0","COUNTRY_CODE":"US"},{"MEAN_MOTION_DOT":"-0.00000792","MEAN_ANOMALY":"285.0496","EPOCH":"2021-10-31T18:53:17.188800","MEAN_MOTION_DDOT":"0.0000000000000","GP_ID":"188579573","NORAD_CAT_ID":"47737","TLE_LINE2":"2 47737  53.0556  73.9564 0001396  75.0648 285.0496 15.06398554 38514","ARG_OF_PERICENTER":"75.0648","ECCENTRICITY":"0.00013960","RA_OF_ASC_NODE":"73.9564","CLASSIFICATION_TYPE":"U","COUNTRY_CODE":"US","EPHEMERIS_TYPE":"0","APOAPSIS":"548.185","REV_AT_EPOCH":"3851","SITE":"AFETR","MEAN_ELEMENT_THEORY":"SGP4","OBJECT_TYPE":"PAYLOAD","OBJECT_ID":"2021-017R","PERIOD":"95.592","INCLINATION":"53.0556","RCS_SIZE":"LARGE","SEMIMAJOR_AXIS":"6925.353","BSTAR":"-0.00003424800000","DECAY_DATE":null,"PERIAPSIS":"546.251","LAUNCH_DATE":"2021-03-04","TLE_LINE1":"1 47737U 21017R   21304.78700450 -.00000792  00000-0 -34248-4 0  9995","REF_FRAME":"TEME","MEAN_MOTION":"15.06398554","FILE":"3194709","ELEMENT_SET_NO":"999","CENTER_NAME":"EARTH","OBJECT_NAME":"STARLINK-2148","TIME_SYSTEM":"UTC"}];
